ONEWEB-0012             
1 44057U 19010A   24297.20526336  .00000075  00000+0  16254-3 0  9994
2 44057  87.9134 348.7206 0002701 100.4013 259.7422 13.16590005272386
ONEWEB-0010             
1 44058U 19010B   24297.38259139  .00000090  00000+0  20161-3 0  9997
2 44058  87.9137 348.6661 0002252  84.9338 275.2049 13.16593635272459
ONEWEB-0008             
1 44059U 19010C   24296.64794607  .00000002  00000+0 -27960-4 0  9999
2 44059  87.9133 348.8128 0001658  94.5040 265.6281 13.16591480272448
ONEWEB-0007             
1 44060U 19010D   24296.73683317 -.00000046  00000+0 -15490-3 0  9999
2 44060  87.9133  19.1227 0002228 101.3046 258.8335 13.15546630272164
ONEWEB-0006             
1 44061U 19010E   24296.74079321 -.00000090  00000+0 -27300-3 0  9997
2 44061  87.9125  19.0931 0002474  96.3748 263.7664 13.15545582272213
ONEWEB-0011             
1 44062U 19010F   24297.24307294  .00000066  00000+0  14231-3 0  9997
2 44062  87.9126  18.9970 0001719  91.9076 268.2251 13.15550849272306
ONEWEB-0013             
1 45131U 20008A   24296.73444841  .00000843  00000+0  24121-2 0  9998
2 45131  87.8677 174.1153 0001813 110.0411 250.0911 13.09397017227225
ONEWEB-0017             
1 45132U 20008B   24296.69174043  .00004135  00000+0  11798-1 0  9991
2 45132  87.8930 156.2233 0001778  66.4883 293.6431 13.10402097229044
